start=new Date('2022-09-27T00:00:00.000Z').valueOf();
sats=[{"EPOCH":"2022-09-26T22:00:00.999936","REV_AT_EPOCH":"130","DECAY_DATE":null,"SEMIMAJOR_AXIS":"6727.884","MEAN_MOTION_DOT":"0.00023349","PERIOD":"91.533","TIME_SYSTEM":"UTC","TLE_LINE2":"2 53714  53.2141 165.1253 0001257 130.2092 102.9220 15.73203831  1306","MEAN_ANOMALY":"102.9220","LAUNCH_DATE":"2022-09-05","OBJECT_TYPE":"PAYLOAD","CENTER_NAME":"EARTH","PERIAPSIS":"348.904","TLE_LINE1":"1 53714U 22107Q   22269.91667824  .00023349  00000-0  17029-3 0  9999","COUNTRY_CODE":"US","CLASSIFICATION_TYPE":"U","RA_OF_ASC_NODE":"165.1253","APOAPSIS":"350.595","BSTAR":"0.00017029000000","ECCENTRICITY":"0.00012570","FILE":"3584555","NORAD_CAT_ID":"53714","EPHEMERIS_TYPE":"0","MEAN_MOTION":"15.73203831","MEAN_MOTION_DDOT":"0.0000000000000","MEAN_ELEMENT_THEORY":"SGP4","REF_FRAME":"TEME","INCLINATION":"53.2141","RCS_SIZE":"LARGE","OBJECT_NAME":"STARLINK-4688","SITE":"AFETR","GP_ID":"213602769","OBJECT_ID":"2022-107Q","ELEMENT_SET_NO":"999","ARG_OF_PERICENTER":"130.2092"},{"LAUNCH_DATE":"2022-09-05","MEAN_ANOMALY":"92.5937","OBJECT_TYPE":"PAYLOAD","SEMIMAJOR_AXIS":"6727.784","DECAY_DATE":null,"REV_AT_EPOCH":"130","EPOCH":"2022-09-26T22:00:00.999936","TLE_LINE2":"2 53715  53.2140 165.1300 0001323 138.1115  92.5937 15.73238853  1307","TIME_SYSTEM":"UTC","PERIOD":"91.531","MEAN_MOTION_DOT":"-0.00080469","APOAPSIS":"350.539","RA_OF_ASC_NODE":"165.1300","TLE_LINE1":"1 53715U 22107R   22269.91667824 -.00080469  00000-0 -57346-3 0  9994","PERIAPSIS":"348.759","CENTER_NAME":"EARTH","CLASSIFICATION_TYPE":"U","COUNTRY_CODE":"US","NORAD_CAT_ID":"53715","FILE":"3584555","MEAN_MOTION":"15.73238853","MEAN_MOTION_DDOT":"0.0000000000000","EPHEMERIS_TYPE":"0","ECCENTRICITY":"0.00013230","BSTAR":"-0.00057346000000","GP_ID":"213601619","SITE":"AFETR","ARG_OF_PERICENTER":"138.1115","ELEMENT_SET_NO":"999","OBJECT_ID":"2022-107R","REF_FRAME":"TEME","MEAN_ELEMENT_THEORY":"SGP4","OBJECT_NAME":"STARLINK-4686","RCS_SIZE":"LARGE","INCLINATION":"53.2140"},{"COUNTRY_CODE":"US","CLASSIFICATION_TYPE":"U","PERIAPSIS":"348.668","TLE_LINE1":"1 53716U 22107S   22269.91667824 -.00103822  00000-0 -74255-3 0  9992","CENTER_NAME":"EARTH","RA_OF_ASC_NODE":"165.1291","APOAPSIS":"350.510","TIME_SYSTEM":"UTC","TLE_LINE2":"2 53716  53.2141 165.1291 0001369 133.6658  97.6852 15.73259973  1308","MEAN_MOTION_DOT":"-0.00103822","PERIOD":"91.530","SEMIMAJOR_AXIS":"6727.724","REV_AT_EPOCH":"130","EPOCH":"2022-09-26T22:00:00.999936","DECAY_DATE":null,"OBJECT_TYPE":"PAYLOAD","MEAN_ANOMALY":"97.6852","LAUNCH_DATE":"2022-09-05","OBJECT_NAME":"STARLINK-4699","RCS_SIZE":"LARGE","INCLINATION":"53.2141","REF_FRAME":"TEME","MEAN_ELEMENT_THEORY":"SGP4","ELEMENT_SET_NO":"999","ARG_OF_PERICENTER":"133.6658","OBJECT_ID":"2022-107S","SITE":"AFETR","GP_ID":"213602365","ECCENTRICITY":"0.00013690","BSTAR":"-0.00074255000000","EPHEMERIS_TYPE":"0","MEAN_MOTION_DDOT":"0.0000000000000","MEAN_MOTION":"15.73259973","FILE":"3584555","NORAD_CAT_ID":"53716"},{"ECCENTRICITY":"0.00069810","BSTAR":"0.00036226000000","FILE":"3584555","NORAD_CAT_ID":"53717","MEAN_MOTION":"15.94930274","MEAN_MOTION_DDOT":"0.0000188400000","EPHEMERIS_TYPE":"0","REF_FRAME":"TEME","MEAN_ELEMENT_THEORY":"SGP4","OBJECT_NAME":"STARLINK-4702","INCLINATION":"53.2110","RCS_SIZE":"LARGE","GP_ID":"213602200","SITE":"AFETR","ARG_OF_PERICENTER":"336.6220","ELEMENT_SET_NO":"999","OBJECT_ID":"2022-107T","SEMIMAJOR_AXIS":"6666.646","DECAY_DATE":null,"REV_AT_EPOCH":"130","EPOCH":"2022-09-26T22:00:00.999936","TLE_LINE2":"2 53717  53.2110 163.0131 0006981 336.6220 204.3361 15.94930274  1305","TIME_SYSTEM":"UTC","PERIOD":"90.286","MEAN_MOTION_DOT":"0.00140686","LAUNCH_DATE":"2022-09-05","MEAN_ANOMALY":"204.3361","OBJECT_TYPE":"PAYLOAD","TLE_LINE1":"1 53717U 22107T   22269.91667824  .00140686  18840-4  36226-3 0  9991","PERIAPSIS":"283.857","CENTER_NAME":"EARTH","CLASSIFICATION_TYPE":"U","COUNTRY_CODE":"US","APOAPSIS":"293.165","RA_OF_ASC_NODE":"163.0131"},{"DECAY_DATE":null,"REV_AT_EPOCH":"130","EPOCH":"2022-09-26T22:00:00.999936","SEMIMAJOR_AXIS":"6727.910","PERIOD":"91.533","MEAN_MOTION_DOT":"0.00024147","TLE_LINE2":"2 53718  53.2140 165.1277 0001379 129.4401 102.4849 15.73194633  1305","TIME_SYSTEM":"UTC","LAUNCH_DATE":"2022-09-05","MEAN_ANOMALY":"102.4849","OBJECT_TYPE":"PAYLOAD","CENTER_NAME":"EARTH","TLE_LINE1":"1 53718U 22107U   22269.91667824  .00024147  00000-0  17601-3 0  9996","PERIAPSIS":"348.848","CLASSIFICATION_TYPE":"U","COUNTRY_CODE":"US","APOAPSIS":"350.703","RA_OF_ASC_NODE":"165.1277","BSTAR":"0.00017601000000","ECCENTRICITY":"0.00013790","FILE":"3584555","NORAD_CAT_ID":"53718","MEAN_MOTION":"15.73194633","MEAN_MOTION_DDOT":"0.0000000000000","EPHEMERIS_TYPE":"0","MEAN_ELEMENT_THEORY":"SGP4","REF_FRAME":"TEME","INCLINATION":"53.2140","RCS_SIZE":"LARGE","OBJECT_NAME":"STARLINK-4695","GP_ID":"213602527","SITE":"AFETR","OBJECT_ID":"2022-107U","ARG_OF_PERICENTER":"129.4401","ELEMENT_SET_NO":"999"},{"LAUNCH_DATE":"2022-09-05","MEAN_ANOMALY":"126.4920","OBJECT_TYPE":"PAYLOAD","DECAY_DATE":null,"REV_AT_EPOCH":"130","EPOCH":"2022-09-26T22:00:00.999936","SEMIMAJOR_AXIS":"6673.384","PERIOD":"90.423","MEAN_MOTION_DOT":"0.00141669","TLE_LINE2":"2 53719  53.2116 163.2355 0007996 306.9135 126.4920 15.92515298  1303","TIME_SYSTEM":"UTC","APOAPSIS":"300.585","RA_OF_ASC_NODE":"163.2355","CENTER_NAME":"EARTH","TLE_LINE1":"1 53719U 22107V   22269.91667824  .00141669  18655-4  41428-3 0  9999","PERIAPSIS":"289.913","CLASSIFICATION_TYPE":"U","COUNTRY_CODE":"US","NORAD_CAT_ID":"53719","FILE":"3584555","MEAN_MOTION":"15.92515298","MEAN_MOTION_DDOT":"0.0000186550000","EPHEMERIS_TYPE":"0","BSTAR":"0.00041428000000","ECCENTRICITY":"0.00079960","GP_ID":"213602035","SITE":"AFETR","OBJECT_ID":"2022-107V","ARG_OF_PERICENTER":"306.9135","ELEMENT_SET_NO":"999","MEAN_ELEMENT_THEORY":"SGP4","REF_FRAME":"TEME","RCS_SIZE":"LARGE","INCLINATION":"53.2116","OBJECT_NAME":"STARLINK-4644"},{"CENTER_NAME":"EARTH","PERIAPSIS":"348.666","TLE_LINE1":"1 53720U 22107W   22269.91667824  .00043308  00000-0  31110-3 0  9990","COUNTRY_CODE":"US","CLASSIFICATION_TYPE":"U","RA_OF_ASC_NODE":"165.1309","APOAPSIS":"350.728","EPOCH":"2022-09-26T22:00:00.999936","REV_AT_EPOCH":"130","DECAY_DATE":null,"SEMIMAJOR_AXIS":"6727.832","MEAN_MOTION_DOT":"0.00043308","PERIOD":"91.532","TIME_SYSTEM":"UTC","TLE_LINE2":"2 53720  53.2163 165.1309 0001533 145.6289  84.3636 15.73222148  1300","MEAN_ANOMALY":"84.3636","LAUNCH_DATE":"2022-09-05","OBJECT_TYPE":"PAYLOAD","MEAN_ELEMENT_THEORY":"SGP4","REF_FRAME":"TEME","RCS_SIZE":"LARGE","INCLINATION":"53.2163","OBJECT_NAME":"STARLINK-4642","SITE":"AFETR","GP_ID":"213602608","OBJECT_ID":"2022-107W","ELEMENT_SET_NO":"999","ARG_OF_PERICENTER":"145.6289","BSTAR":"0.00031110000000","ECCENTRICITY":"0.00015330","NORAD_CAT_ID":"53720","FILE":"3584555","EPHEMERIS_TYPE":"0","MEAN_MOTION":"15.73222148","MEAN_MOTION_DDOT":"0.0000000000000"},{"OBJECT_NAME":"STARLINK-4707","INCLINATION":"53.2143","RCS_SIZE":"LARGE","REF_FRAME":"TEME","MEAN_ELEMENT_THEORY":"SGP4","ARG_OF_PERICENTER":"134.2186","ELEMENT_SET_NO":"999","OBJECT_ID":"2022-107X","GP_ID":"213601784","SITE":"AFETR","ECCENTRICITY":"0.00015740","BSTAR":"-0.00098525000000","MEAN_MOTION_DDOT":"0.0000000000000","MEAN_MOTION":"15.73389062","EPHEMERIS_TYPE":"0","FILE":"3584555","NORAD_CAT_ID":"53721","CLASSIFICATION_TYPE":"U","COUNTRY_CODE":"US","TLE_LINE1":"1 53721U 22107X   22269.91667824 -.00137768  00000-0 -98525-3 0  9990","PERIAPSIS":"348.162","CENTER_NAME":"EARTH","APOAPSIS":"350.280","RA_OF_ASC_NODE":"165.1370","TLE_LINE2":"2 53721  53.2143 165.1370 0001574 134.2186  93.2977 15.73389062  1308","TIME_SYSTEM":"UTC","PERIOD":"91.522","MEAN_MOTION_DOT":"-0.00137768","SEMIMAJOR_AXIS":"6727.356","DECAY_DATE":null,"REV_AT_EPOCH":"130","EPOCH":"2022-09-26T22:00:00.999936","OBJECT_TYPE":"PAYLOAD","LAUNCH_DATE":"2022-09-05","MEAN_ANOMALY":"93.2977"},{"ECCENTRICITY":"0.00013190","BSTAR":"0.00012667000000","MEAN_MOTION_DDOT":"0.0000000000000","MEAN_MOTION":"15.73174487","EPHEMERIS_TYPE":"0","FILE":"3584555","NORAD_CAT_ID":"53722","OBJECT_NAME":"STARLINK-4700","INCLINATION":"53.2141","RCS_SIZE":"LARGE","REF_FRAME":"TEME","MEAN_ELEMENT_THEORY":"SGP4","ARG_OF_PERICENTER":"142.6878","ELEMENT_SET_NO":"999","OBJECT_ID":"2022-107Y","GP_ID":"213602770","SITE":"AFETR","TLE_LINE2":"2 53722  53.2141 165.1355 0001319 142.6878  85.6054 15.73174487  1302","TIME_SYSTEM":"UTC","PERIOD":"91.535","MEAN_MOTION_DOT":"0.00017174","SEMIMAJOR_AXIS":"6727.968","DECAY_DATE":null,"REV_AT_EPOCH":"130","EPOCH":"2022-09-26T22:00:00.999936","OBJECT_TYPE":"PAYLOAD","LAUNCH_DATE":"2022-09-05","MEAN_ANOMALY":"85.6054","CLASSIFICATION_TYPE":"U","COUNTRY_CODE":"US","TLE_LINE1":"1 53722U 22107Y   22269.91667824  .00017174  00000-0  12667-3 0  9990","PERIAPSIS":"348.945","CENTER_NAME":"EARTH","APOAPSIS":"350.720","RA_OF_ASC_NODE":"165.1355"},{"MEAN_ANOMALY":"87.3050","LAUNCH_DATE":"2022-09-05","OBJECT_TYPE":"PAYLOAD","SEMIMAJOR_AXIS":"6727.761","REV_AT_EPOCH":"130","EPOCH":"2022-09-26T22:00:00.999936","DECAY_DATE":null,"TIME_SYSTEM":"UTC","TLE_LINE2":"2 53723  53.2141 165.1400 0001453 138.6810  87.3050 15.73247098  1308","MEAN_MOTION_DOT":"-0.00097918","PERIOD":"91.530","RA_OF_ASC_NODE":"165.1400","APOAPSIS":"350.603","PERIAPSIS":"348.648","TLE_LINE1":"1 53723U 22107Z   22269.91667824 -.00097918  00000-0 -69996-3 0  9994","CENTER_NAME":"EARTH","COUNTRY_CODE":"US","CLASSIFICATION_TYPE":"U","FILE":"3584555","NORAD_CAT_ID":"53723","EPHEMERIS_TYPE":"0","MEAN_MOTION_DDOT":"0.0000000000000","MEAN_MOTION":"15.73247098","ECCENTRICITY":"0.00014530","BSTAR":"-0.00069996000000","SITE":"AFETR","GP_ID":"213601620","ELEMENT_SET_NO":"999","ARG_OF_PERICENTER":"138.6810","OBJECT_ID":"2022-107Z","REF_FRAME":"TEME","MEAN_ELEMENT_THEORY":"SGP4","OBJECT_NAME":"STARLINK-4705","INCLINATION":"53.2141","RCS_SIZE":"LARGE"}];
